{
  "type": "FeatureCollection",
  "features": [
    {
      "type": "Feature",
      "properties": {
        "norad_id": 34079,
        "name": "IRIDIUM 33 DEB",
        "group": "iridium-33-debris",
        "lat": -13.27146187331898,
        "lon": -169.55712867412788,
        "alt_km": 627.3404372709083,
        "timestamp": "2025-12-10T16:57:12.023105+00:00",
        "meta_object_name": "IRIDIUM 33 DEB",
        "meta_object_id": "1997-051CN",
        "meta_epoch": "2025-12-10T01:46:30.105984",
        "meta_mean_motion": 14.83410874,
        "meta_eccentricity": 0.0005944,
        "meta_inclination": 86.3776,
        "meta_ra_of_asc_node": 9.8742,
        "meta_arg_of_pericenter": 16.6843,
        "meta_mean_anomaly": 41.3467,
        "meta_ephemeris_type": 0,
        "meta_classification_type": "U",
        "meta_norad_cat_id": 34079,
        "meta_element_set_no": 999,
        "meta_rev_at_epoch": 88938,
        "meta_bstar": 0.0021846749,
        "meta_mean_motion_dot": 0.00017982,
        "meta_mean_motion_ddot": 0,
        "tle_line1": "1 34079U 97051CN  25344.07395956  .00017982  00000+0  21847-2 0  9997",
        "tle_line2": "2 34079  86.3776   9.8742 0005944  16.6843  41.3467 14.83410874889383"
      },
      "geometry": {
        "type": "Point",
        "coordinates": [
          -169.55712867412788,
          -13.27146187331898
        ]
      }
    },
    {
      "type": "Feature",
      "properties": {
        "norad_id": 34088,
        "name": "IRIDIUM 33 DEB",
        "group": "iridium-33-debris",
        "lat": -47.30136075777645,
        "lon": -144.41264208152845,
        "alt_km": 598.2911957357883,
        "timestamp": "2025-12-10T16:57:12.023116+00:00",
        "meta_object_name": "IRIDIUM 33 DEB",
        "meta_object_id": "1997-051CX",
        "meta_epoch": "2025-12-10T03:18:56.012256",
        "meta_mean_motion": 14.91176406,
        "meta_eccentricity": 0.00054818,
        "meta_inclination": 86.3845,
        "meta_ra_of_asc_node": 31.9191,
        "meta_arg_of_pericenter": 185.8656,
        "meta_mean_anomaly": 232.9656,
        "meta_ephemeris_type": 0,
        "meta_classification_type": "U",
        "meta_norad_cat_id": 34088,
        "meta_element_set_no": 999,
        "meta_rev_at_epoch": 88703,
        "meta_bstar": 0.0035919602,
        "meta_mean_motion_dot": 0.0003583,
        "meta_mean_motion_ddot": 0,
        "tle_line1": "1 34088U 97051CX  25344.13814829  .00035830  00000+0  35920-2 0  9998",
        "tle_line2": "2 34088  86.3845  31.9191 0005481 185.8656 232.9656 14.91176406887038"
      },
      "geometry": {
        "type": "Point",
        "coordinates": [
          -144.41264208152845,
          -47.30136075777645
        ]
      }
    },
    {
      "type": "Feature",
      "properties": {
        "norad_id": 34091,
        "name": "IRIDIUM 33 DEB",
        "group": "iridium-33-debris",
        "lat": 56.807264176649845,
        "lon": -117.84939105603495,
        "alt_km": 642.4180643347736,
        "timestamp": "2025-12-10T16:57:12.023126+00:00",
        "meta_object_name": "IRIDIUM 33 DEB",
        "meta_object_id": "1997-051DA",
        "meta_epoch": "2025-12-10T05:03:05.693184",
        "meta_mean_motion": 14.81495206,
        "meta_eccentricity": 0.003336,
        "meta_inclination": 86.3408,
        "meta_ra_of_asc_node": 67.9914,
        "meta_arg_of_pericenter": 302.3952,
        "meta_mean_anomaly": 57.4043,
        "meta_ephemeris_type": 0,
        "meta_classification_type": "U",
        "meta_norad_cat_id": 34091,
        "meta_element_set_no": 999,
        "meta_rev_at_epoch": 87829,
        "meta_bstar": 0.0076077,
        "meta_mean_motion_dot": 0.00060664,
        "meta_mean_motion_ddot": 0,
        "tle_line1": "1 34091U 97051DA  25344.21048256  .00060664  00000+0  76077-2 0  9995",
        "tle_line2": "2 34091  86.3408  67.9914 0033360 302.3952  57.4043 14.81495206878290"
      },
      "geometry": {
        "type": "Point",
        "coordinates": [
          -117.84939105603495,
          56.807264176649845
        ]
      }
    },
    {
      "type": "Feature",
      "properties": {
        "norad_id": 34097,
        "name": "IRIDIUM 33 DEB",
        "group": "iridium-33-debris",
        "lat": -5.962382444883085,
        "lon": 1.907328930667059,
        "alt_km": 722.3085413813278,
        "timestamp": "2025-12-10T16:57:12.023138+00:00",
        "meta_object_name": "IRIDIUM 33 DEB",
        "meta_object_id": "1997-051DG",
        "meta_epoch": "2025-12-10T11:57:33.314400",
        "meta_mean_motion": 14.34747239,
        "meta_eccentricity": 0.0082852,
        "meta_inclination": 86.2004,
        "meta_ra_of_asc_node": 2.3968,
        "meta_arg_of_pericenter": 9.4924,
        "meta_mean_anomaly": 350.7813,
        "meta_ephemeris_type": 0,
        "meta_classification_type": "U",
        "meta_norad_cat_id": 34097,
        "meta_element_set_no": 999,
        "meta_rev_at_epoch": 87087,
        "meta_bstar": 0.0020372,
        "meta_mean_motion_dot": 6.018e-05,
        "meta_mean_motion_ddot": 0,
        "tle_line1": "1 34097U 97051DG  25344.49830225  .00006018  00000+0  20372-2 0  9996",
        "tle_line2": "2 34097  86.2004   2.3968 0082852   9.4924 350.7813 14.34747239870877"
      },
      "geometry": {
        "type": "Point",
        "coordinates": [
          1.907328930667059,
          -5.962382444883085
        ]
      }
    },
    {
      "type": "Feature",
      "properties": {
        "norad_id": 34145,
        "name": "IRIDIUM 33 DEB",
        "group": "iridium-33-debris",
        "lat": -29.38253403891282,
        "lon": 155.5698177166908,
        "alt_km": 769.8387561077197,
        "timestamp": "2025-12-10T16:57:12.023148+00:00",
        "meta_object_name": "IRIDIUM 33 DEB",
        "meta_object_id": "1997-051DY",
        "meta_epoch": "2025-12-10T04:20:07.855008",
        "meta_mean_motion": 14.42258512,
        "meta_eccentricity": 0.0055658,
        "meta_inclination": 86.2123,
        "meta_ra_of_asc_node": 333.6661,
        "meta_arg_of_pericenter": 101.9259,
        "meta_mean_anomaly": 258.8189,
        "meta_ephemeris_type": 0,
        "meta_classification_type": "U",
        "meta_norad_cat_id": 34145,
        "meta_element_set_no": 999,
        "meta_rev_at_epoch": 87601,
        "meta_bstar": 0.0015884,
        "meta_mean_motion_dot": 5.356e-05,
        "meta_mean_motion_ddot": 0,
        "tle_line1": "1 34145U 97051DY  25344.18064647  .00005356  00000+0  15884-2 0  9999",
        "tle_line2": "2 34145  86.2123 333.6661 0055658 101.9259 258.8189 14.42258512876012"
      },
      "geometry": {
        "type": "Point",
        "coordinates": [
          155.5698177166908,
          -29.38253403891282
        ]
      }
    },
    {
      "type": "Feature",
      "properties": {
        "norad_id": 34146,
        "name": "IRIDIUM 33 DEB",
        "group": "iridium-33-debris",
        "lat": 23.13333827349895,
        "lon": 169.10742370649928,
        "alt_km": 722.9411770380475,
        "timestamp": "2025-12-10T16:57:12.023159+00:00",
        "meta_object_name": "IRIDIUM 33 DEB",
        "meta_object_id": "1997-051DZ",
        "meta_epoch": "2025-12-10T11:57:26.106048",
        "meta_mean_motion": 14.49023045,
        "meta_eccentricity": 0.0025307,
        "meta_inclination": 86.2837,
        "meta_ra_of_asc_node": 350.7905,
        "meta_arg_of_pericenter": 229.5827,
        "meta_mean_anomaly": 282.1791,
        "meta_ephemeris_type": 0,
        "meta_classification_type": "U",
        "meta_norad_cat_id": 34146,
        "meta_element_set_no": 999,
        "meta_rev_at_epoch": 88074,
        "meta_bstar": 0.001403,
        "meta_mean_motion_dot": 5.363e-05,
        "meta_mean_motion_ddot": 0,
        "tle_line1": "1 34146U 97051DZ  25344.49821882  .00005363  00000+0  14030-2 0  9996",
        "tle_line2": "2 34146  86.2837 350.7905 0025307 229.5827 282.1791 14.49023045880744"
      },
      "geometry": {
        "type": "Point",
        "coordinates": [
          169.10742370649928,
          23.13333827349895
        ]
      }
    },
    {
      "type": "Feature",
      "properties": {
        "norad_id": 34159,
        "name": "IRIDIUM 33 DEB",
        "group": "iridium-33-debris",
        "lat": -50.939677423486984,
        "lon": 44.59841524699848,
        "alt_km": 752.5262188131119,
        "timestamp": "2025-12-10T16:57:12.023170+00:00",
        "meta_object_name": "IRIDIUM 33 DEB",
        "meta_object_id": "1997-051EN",
        "meta_epoch": "2025-12-10T10:30:41.699232",
        "meta_mean_motion": 14.38484517,
        "meta_eccentricity": 0.0025948,
        "meta_inclination": 86.3511,
        "meta_ra_of_asc_node": 49.2228,
        "meta_arg_of_pericenter": 295.9422,
        "meta_mean_anomaly": 63.9102,
        "meta_ephemeris_type": 0,
        "meta_classification_type": "U",
        "meta_norad_cat_id": 34159,
        "meta_element_set_no": 999,
        "meta_rev_at_epoch": 87926,
        "meta_bstar": 0.00060754,
        "meta_mean_motion_dot": 1.881e-05,
        "meta_mean_motion_ddot": 0,
        "tle_line1": "1 34159U 97051EN  25344.43798263  .00001881  00000+0  60754-3 0  9996",
        "tle_line2": "2 34159  86.3511  49.2228 0025948 295.9422  63.9102 14.38484517879264"
      },
      "geometry": {
        "type": "Point",
        "coordinates": [
          44.59841524699848,
          -50.939677423486984
        ]
      }
    }
  ]
}